OBJECT_NAME,OBJECT_ID,EPOCH,MEAN_MOTION,ECCENTRICITY,INCLINATION,RA_OF_ASC_NODE,ARG_OF_PERICENTER,MEAN_ANOMALY,EPHEMERIS_TYPE,CLASSIFICATION_TYPE,NORAD_CAT_ID,ELEMENT_SET_NO,REV_AT_EPOCH,BSTAR,MEAN_MOTION_DOT,MEAN_MOTION_DDOT
SL-16 R/B,1994-074B,2025-12-06T15:57:00.239040,14.79279419,.00071393,97.7207,10.2105,153.2787,320.2078,0,U,23343,999,67349,.14090211E-3,.999E-5,0
SL-16 R/B,1994-077B,2025-12-06T15:08:52.416672,14.15546456,.00045787,70.9811,188.2647,288.6333,71.4293,0,U,23405,999,60306,.11195416E-3,.171E-5,0
ARIANE 40+ R/B,1995-021B,2025-12-06T15:11:47.515776,14.39688414,.0007687,98.4659,48.2956,66.0279,60.1607,0,U,23561,999,60585,.22450874E-3,.659E-5,0
SL-16 R/B,1995-058B,2025-12-06T13:30:33.692544,14.15480905,.00149072,71.0225,15.7729,262.9688,96.9740,0,U,23705,999,55467,.1972231E-3,.338E-5,0
SL-16 R/B,1996-051B,2025-12-06T12:56:57.790464,14.12395702,.00192833,70.7598,12.4082,268.9708,90.9203,0,U,24298,999,50849,.60685309E-4,.63E-6,0
ORBVIEW 2 (SEASTAR),1997-037A,2025-12-06T10:23:00.673152,14.35410141,.0001968,98.8455,137.3484,1.8529,358.2663,0,U,24883,999,49509,.25063327E-3,.673E-5,0
SL-16 R/B,1998-043G,2025-12-06T14:58:24.446784,14.26023213,.00088755,98.8115,288.4080,286.5835,73.4370,0,U,25400,999,42572,.85247386E-4,.158E-5,0
SL-16 R/B,1998-045B,2025-12-06T13:10:27.469056,14.16175998,.00072603,71.0125,17.4462,187.2136,172.8884,0,U,25407,999,41391,.13323329E-4,-.21E-6,0
ISS (ZARYA),1998-067A,2025-12-06T13:01:49.374912,15.49366390,.00035502,51.6299,173.1600,211.9909,148.0864,0,U,25544,999,54189,.27332684E-3,.14832E-3,0
CZ-4B R/B,1999-025C,2025-12-06T14:55:57.627264,14.18241383,.00361514,98.6776,22.0388,252.0923,224.2255,0,U,25732,999,37497,.10330984E-3,.17E-5,0
OKEAN-O,1999-039A,2025-12-06T15:18:27.832032,14.80145352,.00008053,97.9611,36.3920,85.7137,274.4167,0,U,25860,999,42062,.20460389E-3,.1501E-4,0
SL-16 R/B,1999-039B,2025-12-06T15:19:49.640736,14.81573192,.00144623,98.0133,34.7893,194.5610,165.5188,0,U,25861,999,42308,.16647505E-3,.1255E-4,0
DELTA 2 R/B,1999-041E,2025-12-06T14:58:19.820928,14.11378268,.05047773,51.7620,312.8599,73.7412,291.8423,0,U,25876,999,34988,.3799296E-3,.2117E-4,0
HELIOS 1B,1999-064A,2025-12-06T14:43:57.424512,14.87244005,.00020499,98.1755,235.0978,51.0249,309.1149,0,U,25977,999,67142,.40767979E-3,.3615E-4,0
TERRA,1999-068A,2025-12-06T15:33:38.850912,14.60942173,.0003497,97.9757,32.5562,110.1193,3.2989,0,U,25994,999,38149,.21554677E-3,.1011E-4,0
SL-16 R/B,2000-006B,2025-12-06T14:39:36.328032,14.15809801,.00181778,71.0030,293.5439,317.1430,42.8275,0,U,26070,999,33538,.12279799E-3,.194E-5,0
TITAN 4B R/B,2000-047B,2025-12-06T12:16:23.822976,15.08710819,.00394547,67.9903,302.3459,152.1623,208.1649,0,U,26474,999,37885,.39625968E-3,.6213E-4,0
ENVISAT,2002-009A,2025-12-06T16:03:33.585408,14.38995788,.00011478,98.3590,291.5639,81.9084,91.1319,0,U,27386,999,24579,.10581281E-3,.284E-5,0
IDEFIX & ARIANE 42P R/B,2002-021B,2025-12-06T13:40:30.915264,14.30943338,.00128934,98.5777,275.3410,100.2556,260.0081,0,U,27422,999,23070,.250557E-3,.615E-5,0
AQUA,2002-022A,2025-12-06T14:35:17.143584,14.61787006,.00009028,98.4029,301.3873,112.6755,3.0890,0,U,27424,999,25513,.46715851E-3,.2282E-4,0
CZ-4B R/B,2002-024C,2025-12-06T15:26:55.555584,14.14525842,.00491792,98.9008,29.4364,287.5667,187.2608,0,U,27432,999,21608,.93521298E-4,.136E-5,0
MIDORI II (ADEOS-II),2002-056A,2025-12-06T14:59:29.287392,14.29199428,.00001623,98.7627,293.5492,10.5481,349.5704,0,U,27597,999,19700,.23590525E-3,.554E-5,0
H-2A R/B,2002-056E,2025-12-06T15:07:52.300416,14.33668654,.00714941,98.3055,299.6309,79.0599,93.6993,0,U,27601,999,20077,.24440939E-3,.656E-5,0
CZ-4B R/B,2003-049C,2025-12-06T14:41:46.121568,14.54900984,.00487064,98.6783,326.9449,154.5673,205.7935,0,U,28059,999,17306,.18431842E-3,.753E-5,0
CZ-2C R/B,2004-012C,2025-12-06T15:02:53.935296,15.54919421,.00167456,97.7429,32.7460,294.3692,65.5813,0,U,28222,999,18977,.80708928E-3,.54455E-3,0
SL-16 R/B,2004-021B,2025-12-06T14:39:40.094208,14.14582258,.00056309,71.0022,67.8264,209.1181,150.9628,0,U,28353,999,10967,-.4171511E-4,-.128E-5,0
CZ-4B R/B,2004-035C,2025-12-06T14:22:58.712160,15.27222324,.00319384,97.3608,11.0257,300.3802,59.4280,0,U,28415,999,16569,.45813459E-3,.12338E-3,0
CZ-2C R/B,2004-046B,2025-12-06T15:33:21.743712,14.26936222,.01406681,98.1985,256.4048,70.1769,291.4514,0,U,28480,999,9523,.13940162E-3,.336E-5,0
ARIANE 5 R/B,2004-049H,2025-12-06T14:07:09.101856,14.84990251,.0083434,98.2522,140.6491,293.1717,66.0723,0,U,28499,999,13197,.2203942E-3,.1934E-4,0
CZ-2D R/B,2005-024B,2025-12-06T14:24:43.962048,15.52721102,.00064466,97.3630,347.8883,26.9532,333.2055,0,U,28738,999,12530,.55634805E-3,.34371E-3,0
