SL-16 R/B               
1 23343U 94074B   25340.66458610  .00000999  00000+0  14090-3 0  9992
2 23343  97.7207  10.2105 0007139 153.2787 320.2078 14.79279419673495
SL-16 R/B               
1 23405U 94077B   25340.63116223  .00000171  00000+0  11195-3 0  9997
2 23405  70.9811 188.2647 0004578 288.6333  71.4293 14.15546456603067
ARIANE 40+ R/B          
1 23561U 95021B   25340.63318884  .00000659  00000+0  22451-3 0  9995
2 23561  98.4659  48.2956 0007687  66.0279  60.1607 14.39688414605854
SL-16 R/B               
1 23705U 95058B   25340.56288996  .00000338  00000+0  19722-3 0  9998
2 23705  71.0225  15.7729 0014907 262.9688  96.9740 14.15480905554678
SL-16 R/B               
1 24298U 96051B   25340.53955776  .00000063  00000+0  60685-4 0  9994
2 24298  70.7598  12.4082 0019283 268.9708  90.9203 14.12395702508496
ORBVIEW 2 (SEASTAR)     
1 24883U 97037A   25340.43264668  .00000673  00000+0  25063-3 0  9998
2 24883  98.8455 137.3484 0001968   1.8529 358.2663 14.35410141495099
SL-16 R/B               
1 25400U 98043G   25340.62389406  .00000158  00000+0  85247-4 0  9990
2 25400  98.8115 288.4080 0008875 286.5835  73.4370 14.26023213425728
SL-16 R/B               
1 25407U 98045B   25340.54892904 -.00000021  00000+0  13323-4 0  9998
2 25407  71.0125  17.4462 0007260 187.2136 172.8884 14.16175998413910
ISS (ZARYA)             
1 25544U 98067A   25340.54293258  .00014832  00000+0  27333-3 0  9990
2 25544  51.6299 173.1600 0003550 211.9909 148.0864 15.49366390541890
CZ-4B R/B               
1 25732U 99025C   25340.62219476  .00000170  00000+0  10331-3 0  9993
2 25732  98.6776  22.0388 0036151 252.0923 224.2255 14.18241383374973
OKEAN-O                 
1 25860U 99039A   25340.63782213  .00001501  00000+0  20460-3 0  9998
2 25860  97.9611  36.3920 0000805  85.7137 274.4167 14.80145352420621
SL-16 R/B               
1 25861U 99039B   25340.63876899  .00001255  00000+0  16648-3 0  9992
2 25861  98.0133  34.7893 0014462 194.5610 165.5188 14.81573192423087
DELTA 2 R/B             
1 25876U 99041E   25340.62384052  .00002117  00000+0  37993-3 0  9999
2 25876  51.7620 312.8599 0504777  73.7412 291.8423 14.11378268349884
HELIOS 1B               
1 25977U 99064A   25340.61385908  .00003615  00000+0  40768-3 0  9994
2 25977  98.1755 235.0978 0002049  51.0249 309.1149 14.87244005671429
TERRA                   
1 25994U 99068A   25340.64836633  .00001011  00000+0  21555-3 0  9997
2 25994  97.9757  32.5562 0003497 110.1193   3.2989 14.60942173381490
SL-16 R/B               
1 26070U 00006B   25340.61083713  .00000194  00000+0  12280-3 0  9993
2 26070  71.0030 293.5439 0018177 317.1430  42.8275 14.15809801335383
TITAN 4B R/B            
1 26474U 00047B   25340.51138684  .00006213  00000+0  39626-3 0  9994
2 26474  67.9903 302.3459 0039454 152.1623 208.1649 15.08710819378851
ENVISAT                 
1 27386U 02009A   25340.66913872  .00000284  00000+0  10581-3 0  9994
2 27386  98.3590 291.5639 0001147  81.9084  91.1319 14.38995788245793
IDEFIX & ARIANE 42P R/B 
1 27422U 02021B   25340.56980226  .00000615  00000+0  25056-3 0  9996
2 27422  98.5777 275.3410 0012893 100.2556 260.0081 14.30943338230703
AQUA                    
1 27424U 02022A   25340.60783731  .00002282  00000+0  46716-3 0  9994
2 27424  98.4029 301.3873 0000902 112.6755   3.0890 14.61787006255132
CZ-4B R/B               
1 27432U 02024C   25340.64369856  .00000136  00000+0  93521-4 0  9990
2 27432  98.9008  29.4364 0049179 287.5667 187.2608 14.14525842216088
MIDORI II (ADEOS-II)    
1 27597U 02056A   25340.62464453  .00000554  00000+0  23591-3 0  9997
2 27597  98.7627 293.5492 0000162  10.5481 349.5704 14.29199428197001
H-2A R/B                
1 27601U 02056E   25340.63046644  .00000656  00000+0  24441-3 0  9990
2 27601  98.3055 299.6309 0071494  79.0599  93.6993 14.33668654200771
CZ-4B R/B               
1 28059U 03049C   25340.61233937  .00000753  00000+0  18432-3 0  9993
2 28059  98.6783 326.9449 0048706 154.5673 205.7935 14.54900984173062
CZ-2C R/B               
1 28222U 04012C   25340.62701314  .00054455  00000+0  80709-3 0  9990
2 28222  97.7429  32.7460 0016745 294.3692  65.5813 15.54919421189777
SL-16 R/B               
1 28353U 04021B   25340.61088072 -.00000128  00000+0 -41715-4 0  9998
2 28353  71.0022  67.8264 0005630 209.1181 150.9628 14.14582258109678
CZ-4B R/B               
1 28415U 04035C   25340.59929065  .00012338  00000+0  45813-3 0  9991
2 28415  97.3608  11.0257 0031938 300.3802  59.4280 15.27222324165696
CZ-2C R/B               
1 28480U 04046B   25340.64816833  .00000336  00000+0  13940-3 0  9990
2 28480  98.1985 256.4048 0140668  70.1769 291.4514 14.26936222 95230
ARIANE 5 R/B            
1 28499U 04049H   25340.58829979  .00001934  00000+0  22039-3 0  9995
2 28499  98.2522 140.6491 0083434 293.1717  66.0723 14.84990251131977
CZ-2D R/B               
1 28738U 05024B   25340.60050882  .00034371  00000+0  55635-3 0  9996
2 28738  97.3630 347.8883 0006446  26.9532 333.2055 15.52721102125304
